start=new Date('2023-06-23T00:00:00.000Z').valueOf();
sats=[{"BSTAR":"-0.00004592900000","INCLINATION":"97.6560","MEAN_ELEMENT_THEORY":"SGP4","RCS_SIZE":"LARGE","OBJECT_TYPE":"PAYLOAD","EPHEMERIS_TYPE":"0","ARG_OF_PERICENTER":"50.0802","MEAN_MOTION_DDOT":"0.0000000000000","EPOCH":"2023-06-22T02:26:33.393696","CENTER_NAME":"EARTH","MEAN_ANOMALY":"310.0673","SITE":"AFWTR","OBJECT_ID":"2022-077N","MEAN_MOTION":"15.01256866","TLE_LINE2":"2 53055  97.6560 354.1082 0002867  50.0802 310.0673 15.01256866 52720","ECCENTRICITY":"0.00028670","FILE":"3939387","CLASSIFICATION_TYPE":"U","PERIOD":"95.920","RA_OF_ASC_NODE":"354.1082","TLE_LINE1":"1 53055U 22077N   23173.10177539 -.00000649  00000-0 -45929-4 0  9999","ELEMENT_SET_NO":"999","DECAY_DATE":null,"REF_FRAME":"TEME","SEMIMAJOR_AXIS":"6941.157","LAUNCH_DATE":"2022-07-11","NORAD_CAT_ID":"53055","OBJECT_NAME":"STARLINK-4338","COUNTRY_CODE":"US","TIME_SYSTEM":"UTC","PERIAPSIS":"561.031","GP_ID":"234444727","REV_AT_EPOCH":"5272","APOAPSIS":"565.012","MEAN_MOTION_DOT":"-0.00000649"},{"EPOCH":"2023-06-22T10:31:47.211168","CENTER_NAME":"EARTH","MEAN_ANOMALY":"298.5149","SITE":"AFWTR","MEAN_MOTION":"15.01259333","OBJECT_ID":"2022-077P","TLE_LINE2":"2 53056  97.6561 354.4410 0003857  61.6464 298.5149 15.01259333 52777","ECCENTRICITY":"0.00038570","FILE":"3939716","BSTAR":"-0.00015323000000","INCLINATION":"97.6561","MEAN_ELEMENT_THEORY":"SGP4","RCS_SIZE":"LARGE","EPHEMERIS_TYPE":"0","OBJECT_TYPE":"PAYLOAD","MEAN_MOTION_DDOT":"0.0000000000000","ARG_OF_PERICENTER":"61.6464","LAUNCH_DATE":"2022-07-11","NORAD_CAT_ID":"53056","OBJECT_NAME":"STARLINK-4314","COUNTRY_CODE":"US","TIME_SYSTEM":"UTC","PERIAPSIS":"560.337","GP_ID":"234452567","REV_AT_EPOCH":"5277","APOAPSIS":"565.691","MEAN_MOTION_DOT":"-0.00002027","CLASSIFICATION_TYPE":"U","PERIOD":"95.919","RA_OF_ASC_NODE":"354.4410","ELEMENT_SET_NO":"999","TLE_LINE1":"1 53056U 22077P   23173.43874087 -.00002027  00000-0 -15323-3 0  9994","DECAY_DATE":null,"REF_FRAME":"TEME","SEMIMAJOR_AXIS":"6941.149"},{"TIME_SYSTEM":"UTC","COUNTRY_CODE":"US","PERIAPSIS":"561.756","GP_ID":"234459487","REV_AT_EPOCH":"5282","APOAPSIS":"564.275","MEAN_MOTION_DOT":"-0.00000013","LAUNCH_DATE":"2022-07-11","OBJECT_NAME":"STARLINK-4252","NORAD_CAT_ID":"53057","SEMIMAJOR_AXIS":"6941.150","CLASSIFICATION_TYPE":"U","PERIOD":"95.920","RA_OF_ASC_NODE":"354.7595","DECAY_DATE":null,"TLE_LINE1":"1 53057U 22077Q   23173.76459230 -.00000013  00000-0  36141-5 0  9995","ELEMENT_SET_NO":"999","REF_FRAME":"TEME","SITE":"AFWTR","MEAN_MOTION":"15.01258842","OBJECT_ID":"2022-077Q","TLE_LINE2":"2 53057  97.6555 354.7595 0001814  61.9342 298.2065 15.01258842 52821","ECCENTRICITY":"0.00018140","FILE":"3940009","EPOCH":"2023-06-22T18:21:00.774720","CENTER_NAME":"EARTH","MEAN_ANOMALY":"298.2065","EPHEMERIS_TYPE":"0","OBJECT_TYPE":"PAYLOAD","MEAN_MOTION_DDOT":"0.0000000000000","ARG_OF_PERICENTER":"61.9342","BSTAR":"0.00000361410000","INCLINATION":"97.6555","MEAN_ELEMENT_THEORY":"SGP4","RCS_SIZE":"LARGE"},{"PERIAPSIS":"561.788","COUNTRY_CODE":"US","TIME_SYSTEM":"UTC","REV_AT_EPOCH":"5224","GP_ID":"234460759","APOAPSIS":"564.228","MEAN_MOTION_DOT":"-0.00000174","OBJECT_NAME":"STARLINK-4317","NORAD_CAT_ID":"53058","LAUNCH_DATE":"2022-07-11","SEMIMAJOR_AXIS":"6941.143","CLASSIFICATION_TYPE":"U","RA_OF_ASC_NODE":"354.7513","PERIOD":"95.919","REF_FRAME":"TEME","ELEMENT_SET_NO":"999","TLE_LINE1":"1 53058U 22077R   23173.78125928 -.00000174  00000-0 -89685-5 0  9992","DECAY_DATE":null,"OBJECT_ID":"2022-077R","MEAN_MOTION":"15.01261245","SITE":"AFWTR","ECCENTRICITY":"0.00017570","FILE":"3940029","TLE_LINE2":"2 53058  97.6577 354.7513 0001757  80.5891 279.5532 15.01261245 52246","CENTER_NAME":"EARTH","EPOCH":"2023-06-22T18:45:00.801792","MEAN_ANOMALY":"279.5532","OBJECT_TYPE":"PAYLOAD","EPHEMERIS_TYPE":"0","MEAN_MOTION_DDOT":"0.0000000000000","ARG_OF_PERICENTER":"80.5891","INCLINATION":"97.6577","BSTAR":"-0.00000896850000","MEAN_ELEMENT_THEORY":"SGP4","RCS_SIZE":"LARGE"},{"NORAD_CAT_ID":"53059","OBJECT_NAME":"STARLINK-4320","LAUNCH_DATE":"2022-07-11","APOAPSIS":"564.587","MEAN_MOTION_DOT":"0.00002981","PERIAPSIS":"561.522","COUNTRY_CODE":"US","TIME_SYSTEM":"UTC","REV_AT_EPOCH":"5279","GP_ID":"234460233","RA_OF_ASC_NODE":"354.5554","PERIOD":"95.920","REF_FRAME":"TEME","TLE_LINE1":"1 53059U 22077S   23173.56117824  .00002981  00000-0  23665-3 0  9995","ELEMENT_SET_NO":"999","DECAY_DATE":null,"CLASSIFICATION_TYPE":"U","SEMIMAJOR_AXIS":"6941.189","MEAN_ANOMALY":"282.7074","CENTER_NAME":"EARTH","EPOCH":"2023-06-22T13:28:05.799936","OBJECT_ID":"2022-077S","MEAN_MOTION":"15.01246218","SITE":"AFWTR","ECCENTRICITY":"0.00022080","FILE":"3940055","TLE_LINE2":"2 53059  97.6545 354.5554 0002208  77.4397 282.7074 15.01246218 52793","RCS_SIZE":"LARGE","INCLINATION":"97.6545","BSTAR":"0.00023665000000","MEAN_ELEMENT_THEORY":"SGP4","ARG_OF_PERICENTER":"77.4397","MEAN_MOTION_DDOT":"0.0000000000000","OBJECT_TYPE":"PAYLOAD","EPHEMERIS_TYPE":"0"},{"TLE_LINE2":"2 53060  97.6559 354.5653 0002445  53.6155 306.5295 15.01252875 52797","ECCENTRICITY":"0.00024450","FILE":"3940009","SITE":"AFWTR","OBJECT_ID":"2022-077T","MEAN_MOTION":"15.01252875","MEAN_ANOMALY":"306.5295","EPOCH":"2023-06-22T13:35:44.646144","CENTER_NAME":"EARTH","MEAN_MOTION_DDOT":"0.0000000000000","ARG_OF_PERICENTER":"53.6155","EPHEMERIS_TYPE":"0","OBJECT_TYPE":"PAYLOAD","RCS_SIZE":"LARGE","MEAN_ELEMENT_THEORY":"SGP4","BSTAR":"0.00006651300000","INCLINATION":"97.6559","MEAN_MOTION_DOT":"0.00000795","APOAPSIS":"564.731","GP_ID":"234459490","REV_AT_EPOCH":"5279","COUNTRY_CODE":"US","TIME_SYSTEM":"UTC","PERIAPSIS":"561.337","LAUNCH_DATE":"2022-07-11","OBJECT_NAME":"STARLINK-4305","NORAD_CAT_ID":"53060","SEMIMAJOR_AXIS":"6941.169","TLE_LINE1":"1 53060U 22077T   23173.56648896  .00000795  00000-0  66513-4 0  9996","DECAY_DATE":null,"ELEMENT_SET_NO":"999","REF_FRAME":"TEME","PERIOD":"95.920","RA_OF_ASC_NODE":"354.5653","CLASSIFICATION_TYPE":"U"},{"REV_AT_EPOCH":"5277","GP_ID":"234453081","PERIAPSIS":"561.934","COUNTRY_CODE":"US","TIME_SYSTEM":"UTC","MEAN_MOTION_DOT":"0.00000044","APOAPSIS":"564.105","NORAD_CAT_ID":"53061","OBJECT_NAME":"STARLINK-4308","LAUNCH_DATE":"2022-07-11","SEMIMAJOR_AXIS":"6941.154","CLASSIFICATION_TYPE":"U","REF_FRAME":"TEME","DECAY_DATE":null,"TLE_LINE1":"1 53061U 22077U   23173.42577565  .00000044  00000-0  80098-5 0  9998","ELEMENT_SET_NO":"999","RA_OF_ASC_NODE":"354.4201","PERIOD":"95.920","FILE":"3939717","ECCENTRICITY":"0.00015640","TLE_LINE2":"2 53061  97.6547 354.4201 0001564 102.7519 257.3880 15.01257528 52775","MEAN_MOTION":"15.01257528","OBJECT_ID":"2022-077U","SITE":"AFWTR","CENTER_NAME":"EARTH","EPOCH":"2023-06-22T10:13:07.016160","MEAN_ANOMALY":"257.3880","OBJECT_TYPE":"PAYLOAD","EPHEMERIS_TYPE":"0","MEAN_MOTION_DDOT":"0.0000000000000","ARG_OF_PERICENTER":"102.7519","MEAN_ELEMENT_THEORY":"SGP4","INCLINATION":"97.6547","BSTAR":"0.00000800980000","RCS_SIZE":"LARGE"},{"CENTER_NAME":"EARTH","EPOCH":"2023-06-21T18:18:39.086496","MEAN_ANOMALY":"289.2593","ECCENTRICITY":"0.00015740","FILE":"3939175","TLE_LINE2":"2 53062  97.6550 353.7704 0001574  70.8801 289.2593 15.01260621 52672","OBJECT_ID":"2022-077V","MEAN_MOTION":"15.01260621","SITE":"AFWTR","MEAN_ELEMENT_THEORY":"SGP4","INCLINATION":"97.6550","BSTAR":"0.00000605530000","RCS_SIZE":"LARGE","EPHEMERIS_TYPE":"0","OBJECT_TYPE":"PAYLOAD","ARG_OF_PERICENTER":"70.8801","MEAN_MOTION_DDOT":"0.0000000000000","OBJECT_NAME":"STARLINK-4311","NORAD_CAT_ID":"53062","LAUNCH_DATE":"2022-07-11","REV_AT_EPOCH":"5267","GP_ID":"234439536","PERIAPSIS":"561.917","COUNTRY_CODE":"US","TIME_SYSTEM":"UTC","MEAN_MOTION_DOT":"0.00000019","APOAPSIS":"564.102","CLASSIFICATION_TYPE":"U","REF_FRAME":"TEME","DECAY_DATE":null,"TLE_LINE1":"1 53062U 22077V   23172.76295239  .00000019  00000-0  60553-5 0  9996","ELEMENT_SET_NO":"999","RA_OF_ASC_NODE":"353.7704","PERIOD":"95.919","SEMIMAJOR_AXIS":"6941.145"},{"CLASSIFICATION_TYPE":"U","RA_OF_ASC_NODE":"354.7944","PERIOD":"95.919","REF_FRAME":"TEME","DECAY_DATE":null,"TLE_LINE1":"1 53063U 22077W   23173.78310446  .00000683  00000-0  57743-4 0  9991","ELEMENT_SET_NO":"999","SEMIMAJOR_AXIS":"6941.145","NORAD_CAT_ID":"53063","OBJECT_NAME":"STARLINK-4307","LAUNCH_DATE":"2022-07-11","PERIAPSIS":"561.283","COUNTRY_CODE":"US","TIME_SYSTEM":"UTC","REV_AT_EPOCH":"5283","GP_ID":"234460019","APOAPSIS":"564.736","MEAN_MOTION_DOT":"0.00000683","INCLINATION":"97.6589","BSTAR":"0.00005774300000","MEAN_ELEMENT_THEORY":"SGP4","RCS_SIZE":"LARGE","EPHEMERIS_TYPE":"0","OBJECT_TYPE":"PAYLOAD","MEAN_MOTION_DDOT":"0.0000000000000","ARG_OF_PERICENTER":"85.1758","CENTER_NAME":"EARTH","EPOCH":"2023-06-22T18:47:40.225344","MEAN_ANOMALY":"274.9750","MEAN_MOTION":"15.01260700","OBJECT_ID":"2022-077W","SITE":"AFWTR","ECCENTRICITY":"0.00024870","FILE":"3940011","TLE_LINE2":"2 53063  97.6589 354.7944 0002487  85.1758 274.9750 15.01260700 52838"},{"NORAD_CAT_ID":"53064","OBJECT_NAME":"STARLINK-4313","LAUNCH_DATE":"2022-07-11","REV_AT_EPOCH":"5277","GP_ID":"234453097","PERIAPSIS":"562.066","TIME_SYSTEM":"UTC","COUNTRY_CODE":"US","MEAN_MOTION_DOT":"0.00000309","APOAPSIS":"563.967","CLASSIFICATION_TYPE":"U","REF_FRAME":"TEME","TLE_LINE1":"1 53064U 22077X   23173.42762489  .00000309  00000-0  28686-4 0  9990","ELEMENT_SET_NO":"999","DECAY_DATE":null,"RA_OF_ASC_NODE":"354.4238","PERIOD":"95.920","SEMIMAJOR_AXIS":"6941.151","CENTER_NAME":"EARTH","EPOCH":"2023-06-22T10:15:46.790496","MEAN_ANOMALY":"267.3043","ECCENTRICITY":"0.00013690","FILE":"3939718","TLE_LINE2":"2 53064  97.6544 354.4238 0001369  92.8338 267.3043 15.01258544 52777","MEAN_MOTION":"15.01258544","OBJECT_ID":"2022-077X","SITE":"AFWTR","MEAN_ELEMENT_THEORY":"SGP4","INCLINATION":"97.6544","BSTAR":"0.00002868600000","RCS_SIZE":"LARGE","OBJECT_TYPE":"PAYLOAD","EPHEMERIS_TYPE":"0","ARG_OF_PERICENTER":"92.8338","MEAN_MOTION_DDOT":"0.0000000000000"}];
